{
  "norad_id": 41869,
  "name": "TIANLIAN 1-04",
  "history": [
    {
      "epoch": "2026-04-14T18:20:38.721120Z",
      "apogee_km": 35954.95933240417,
      "perigee_km": 35619.16412277738,
      "latitude_deg": -0.3500211026357734,
      "longitude_deg": 177.20649636605643,
      "height_km": 35868.70185617236,
      "semi_major_axis_km": 42165.198727590774,
      "eccentricity": 0.0039819,
      "inclination_deg": 0.704,
      "raan_deg": 83.1692,
      "arg_perigee_deg": 92.5573,
      "mean_anomaly_deg": 119.1849,
      "mean_motion_rev_day": 1.0027012
    },
    {
      "epoch": "2026-04-15T20:00:47.782368Z",
      "apogee_km": 35954.99211783264,
      "perigee_km": 35618.96985955714,
      "latitude_deg": -0.5744957198882943,
      "longitude_deg": 177.06044058136132,
      "height_km": 35925.053209825805,
      "semi_major_axis_km": 42165.117988694896,
      "eccentricity": 0.0039846,
      "inclination_deg": 0.7066,
      "raan_deg": 83.1652,
      "arg_perigee_deg": 92.4593,
      "mean_anomaly_deg": 145.3738,
      "mean_motion_rev_day": 1.00270408
    },
    {
      "epoch": "2026-04-16T19:58:13.884096Z",
      "apogee_km": 35955.00495729528,
      "perigee_km": 35618.81460629467,
      "latitude_deg": -0.578193374004517,
      "longitude_deg": 177.0524199728524,
      "height_km": 35925.64359508288,
      "semi_major_axis_km": 42165.046781794976,
      "eccentricity": 0.0039866,
      "inclination_deg": 0.7091,
      "raan_deg": 83.1591,
      "arg_perigee_deg": 92.3965,
      "mean_anomaly_deg": 145.781,
      "mean_motion_rev_day": 1.00270662
    },
    {
      "epoch": "2026-04-17T19:55:40.766880Z",
      "apogee_km": 35955.08175596576,
      "perigee_km": 35618.60941144604,
      "latitude_deg": -0.5828972263074302,
      "longitude_deg": 177.04526239264572,
      "height_km": 35926.31901911758,
      "semi_major_axis_km": 42164.9825837059,
      "eccentricity": 0.00398995,
      "inclination_deg": 0.7116,
      "raan_deg": 83.1527,
      "arg_perigee_deg": 92.3122,
      "mean_anomaly_deg": 146.2132,
      "mean_motion_rev_day": 1.00270891
    },
    {
      "epoch": "2026-04-18T18:10:22.886976Z",
      "apogee_km": 35955.09363447851,
      "perigee_km": 35618.49100372412,
      "latitude_deg": -0.37309724478868794,
      "longitude_deg": 177.18043355910618,
      "height_km": 35872.50486516695,
      "semi_major_axis_km": 42164.92931910132,
      "eccentricity": 0.0039915,
      "inclination_deg": 0.7139,
      "raan_deg": 83.1419,
      "arg_perigee_deg": 92.2939,
      "mean_anomaly_deg": 120.8274,
      "mean_motion_rev_day": 1.00271081
    },
    {
      "epoch": "2026-04-19T19:50:27.599712Z",
      "apogee_km": 35955.12616516697,
      "perigee_km": 35618.33848790818,
      "latitude_deg": -0.5947614053971025,
      "longitude_deg": 177.0362269262759,
      "height_km": 35927.371926782434,
      "semi_major_axis_km": 42164.86932653758,
      "eccentricity": 0.0039937,
      "inclination_deg": 0.7166,
      "raan_deg": 83.1324,
      "arg_perigee_deg": 92.2718,
      "mean_anomaly_deg": 146.9288,
      "mean_motion_rev_day": 1.00271295
    },
    {
      "epoch": "2026-04-20T12:57:12.767040Z",
      "apogee_km": 35955.170812503675,
      "perigee_km": 35618.21983126644,
      "latitude_deg": 0.4810054970045092,
      "longitude_deg": 177.1090593626849,
      "height_km": 35665.20645876635,
      "semi_major_axis_km": 42164.83232188506,
      "eccentricity": 0.00399564,
      "inclination_deg": 0.7183,
      "raan_deg": 83.1256,
      "arg_perigee_deg": 92.2751,
      "mean_anomaly_deg": 44.3208,
      "mean_motion_rev_day": 1.00271427
    },
    {
      "epoch": "2026-04-21T19:45:21.749760Z",
      "apogee_km": 35955.2550687933,
      "perigee_km": 35618.021197279275,
      "latitude_deg": -0.6076199046775427,
      "longitude_deg": 177.0311505396153,
      "height_km": 35928.625974162496,
      "semi_major_axis_km": 42164.77513303629,
      "eccentricity": 0.003999,
      "inclination_deg": 0.7216,
      "raan_deg": 83.1135,
      "arg_perigee_deg": 92.2432,
      "mean_anomaly_deg": 147.6625,
      "mean_motion_rev_day": 1.00271631
    },
    {
      "epoch": "2026-04-22T18:28:38.833824Z",
      "apogee_km": 35956.76085877247,
      "perigee_km": 35616.43242764467,
      "latitude_deg": -0.4697146073374931,
      "longitude_deg": 177.1360705030737,
      "height_km": 35895.91253420033,
      "semi_major_axis_km": 42164.73364320857,
      "eccentricity": 0.0040357,
      "inclination_deg": 0.7254,
      "raan_deg": 83.2038,
      "arg_perigee_deg": 91.3901,
      "mean_anomaly_deg": 130.1738,
      "mean_motion_rev_day": 1.00271779
    },
    {
      "epoch": "2026-04-23T11:06:51.592896Z",
      "apogee_km": 35955.37851214796,
      "perigee_km": 35617.74300824528,
      "latitude_deg": 0.6597379411265643,
      "longitude_deg": 176.9431821810626,
      "height_km": 35626.704740653426,
      "semi_major_axis_km": 42164.69776019662,
      "eccentricity": 0.00400377,
      "inclination_deg": 0.7259,
      "raan_deg": 83.0994,
      "arg_perigee_deg": 92.2366,
      "mean_anomaly_deg": 19.6697,
      "mean_motion_rev_day": 1.00271907
    },
    {
      "epoch": "2026-04-24T19:37:43.934304Z",
      "apogee_km": 35955.42805278483,
      "perigee_km": 35617.57965149299,
      "latitude_deg": -0.6217678485288285,
      "longitude_deg": 177.0240973588374,
      "height_km": 35930.56565358425,
      "semi_major_axis_km": 42164.64085213892,
      "eccentricity": 0.0040063,
      "inclination_deg": 0.7295,
      "raan_deg": 83.0871,
      "arg_perigee_deg": 92.2084,
      "mean_anomaly_deg": 148.7609,
      "mean_motion_rev_day": 1.0027211
    },
    {
      "epoch": "2026-04-25T16:09:46.924128Z",
      "apogee_km": 35955.54325587429,
      "perigee_km": 35617.39156143775,
      "latitude_deg": -0.11939143443141279,
      "longitude_deg": 177.24128303996747,
      "height_km": 35808.52021395395,
      "semi_major_axis_km": 42164.60440865602,
      "eccentricity": 0.0040099,
      "inclination_deg": 0.7318,
      "raan_deg": 83.0849,
      "arg_perigee_deg": 92.191,
      "mean_anomaly_deg": 97.635,
      "mean_motion_rev_day": 1.0027224
    },
    {
      "epoch": "2026-04-26T21:51:50.605632Z",
      "apogee_km": 35955.636640867444,
      "perigee_km": 35617.17426896419,
      "latitude_deg": -0.7128313889062647,
      "longitude_deg": 176.75159640693977,
      "height_km": 35955.03463178133,
      "semi_major_axis_km": 42164.54245491582,
      "eccentricity": 0.00401359,
      "inclination_deg": 0.7351,
      "raan_deg": 83.0729,
      "arg_perigee_deg": 92.1597,
      "mean_anomaly_deg": 184.4139,
      "mean_motion_rev_day": 1.00272461
    },
    {
      "epoch": "2026-04-27T19:30:01.316736Z",
      "apogee_km": 35955.69153529034,
      "perigee_km": 35617.026304063496,
      "latitude_deg": -0.6305392672146859,
      "longitude_deg": 177.01406543278884,
      "height_km": 35932.42908675071,
      "semi_major_axis_km": 42164.49591967692,
      "eccentricity": 0.004016,
      "inclination_deg": 0.7376,
      "raan_deg": 83.0695,
      "arg_perigee_deg": 92.1187,
      "mean_anomaly_deg": 149.8928,
      "mean_motion_rev_day": 1.00272627
    },
    {
      "epoch": "2026-04-28T19:27:25.310304Z",
      "apogee_km": 35957.32757033282,
      "perigee_km": 35615.04602261779,
      "latitude_deg": -0.6339178936079587,
      "longitude_deg": 177.02497189013673,
      "height_km": 35935.34213294398,
      "semi_major_axis_km": 42164.323796475306,
      "eccentricity": 0.0040589,
      "inclination_deg": 0.741,
      "raan_deg": 83.1752,
      "arg_perigee_deg": 91.2776,
      "mean_anomaly_deg": 150.9806,
      "mean_motion_rev_day": 1.00273241
    },
    {
      "epoch": "2026-04-29T19:29:38.666112Z",
      "apogee_km": 35957.3786467364,
      "perigee_km": 35614.86991948144,
      "latitude_deg": -0.6448374472215016,
      "longitude_deg": 177.01696427448866,
      "height_km": 35937.51116720781,
      "semi_major_axis_km": 42164.26128310892,
      "eccentricity": 0.0040616,
      "inclination_deg": 0.7437,
      "raan_deg": 83.1686,
      "arg_perigee_deg": 91.2736,
      "mean_anomaly_deg": 152.5394,
      "mean_motion_rev_day": 1.00273464
    },
    {
      "epoch": "2026-04-29T21:41:38.855616Z",
      "apogee_km": 35957.38988421451,
      "perigee_km": 35614.8491508364,
      "latitude_deg": -0.7157199957872705,
      "longitude_deg": 176.76041171302145,
      "height_km": 35956.36924378206,
      "semi_major_axis_km": 42164.256517525464,
      "eccentricity": 0.00406198,
      "inclination_deg": 0.7439,
      "raan_deg": 83.1671,
      "arg_perigee_deg": 91.2733,
      "mean_anomaly_deg": 185.6329,
      "mean_motion_rev_day": 1.00273481
    },
    {
      "epoch": "2026-05-02T12:20:54.796704Z",
      "apogee_km": 35955.96716650991,
      "perigee_km": 35616.12385547133,
      "latitude_deg": 0.468406953241419,
      "longitude_deg": 177.14255352038055,
      "height_km": 35670.344328505525,
      "semi_major_axis_km": 42164.18251099062,
      "eccentricity": 0.00403,
      "inclination_deg": 0.7506,
      "raan_deg": 83.0619,
      "arg_perigee_deg": 91.9254,
      "mean_anomaly_deg": 47.4776,
      "mean_motion_rev_day": 1.00273745
    },
    {
      "epoch": "2026-05-03T19:14:37.500288Z",
      "apogee_km": 35956.09492477281,
      "perigee_km": 35615.780245979324,
      "latitude_deg": -0.6608283283115688,
      "longitude_deg": 177.02752743826866,
      "height_km": 35935.69566116008,
      "semi_major_axis_km": 42164.074585376075,
      "eccentricity": 0.0040356,
      "inclination_deg": 0.754,
      "raan_deg": 83.0623,
      "arg_perigee_deg": 91.8694,
      "mean_anomaly_deg": 152.2433,
      "mean_motion_rev_day": 1.0027413
    }
  ]
}